KUIPER-00104            
1 65142U 25171L   25345.28441025 -.00003880  00000+0 -45573-3 0  9996
2 65142  51.8988 187.9325 0002341 237.8846 122.1890 14.82063174 19810
KUIPER-00105            
1 65143U 25171M   25346.89338297 -.00013638  00000+0 -17626-2 0  9990
2 65143  51.8985 189.4633 0012966 173.9347 186.1775 14.79883465 19931
KUIPER-00106            
1 65144U 25171N   25346.78669692  .00007118  00000+0  64102-3 0  9991
2 65144  51.8920 189.6980 0009578 168.0498 192.0700 14.96518616 19920
KUIPER-00107            
1 65145U 25171P   25346.91668981 -.01908273  00000+0 -15555+0 0  9996
2 65145  51.8873 173.1480 0007029 229.1182 205.6901 15.02865744  5518
KUIPER-00108            
1 65146U 25171Q   25346.86510455  .00004922  00000+0  67482-3 0  9998
2 65146  51.9009 184.5278 0008700 180.3598 179.7359 14.79882455 20008
KUIPER-00109            
1 65147U 25171R   25346.91668981  .00021928  00000+0  28931-2 0  9993
2 65147  51.9010 179.2438 0011922 197.5523 228.5248 14.79931736  5839
KUIPER-00110            
1 65148U 25171S   25346.98936471  .00122492  00000+0  16863-1 0  9991
2 65148  51.8970 191.5002 0011063 176.1573 183.9475 14.77158648 19902
KUIPER-00111            
1 65149U 25171T   25346.95283755 -.00007271  00000+0 -92542-3 0  9998
2 65149  51.8978 196.6194 0008902 185.0291 175.0584 14.79905476 19839
